{"type": "FeatureCollection", "features": [{"type": "Feature", "properties": {"norad_id": 22490, "name": "SCD 1", "group": "resource", "lat": 19.30503198187805, "lon": -18.547816420460283, "alt_km": 744.3020388638879, "timestamp": "2025-12-10T11:33:53.047566+00:00", "meta": {"OBJECT_NAME": "SCD 1", "OBJECT_ID": "1993-009B", "EPOCH": "2025-12-10T04:53:32.246016", "MEAN_MOTION": 14.45996078, "ECCENTRICITY": 0.0041736, "INCLINATION": 24.9703, "RA_OF_ASC_NODE": 294.3414, "ARG_OF_PERICENTER": 298.0723, "MEAN_ANOMALY": 102.906, "EPHEMERIS_TYPE": 0, "CLASSIFICATION_TYPE": "U", "NORAD_CAT_ID": 22490, "ELEMENT_SET_NO": 999, "REV_AT_EPOCH": 73373, "BSTAR": 0.00014938, "MEAN_MOTION_DOT": 7.32e-06, "MEAN_MOTION_DDOT": 0}, "tle": {"line1": "1 22490U 93009B   25344.20384544  .00000732  00000+0  14938-3 0  9995", "line2": "2 22490  24.9703 294.3414 0041736 298.0723 102.9060 14.45996078733737"}}, "geometry": {"type": "Point", "coordinates": [-18.547816420460283, 19.30503198187805]}}, {"type": "Feature", "properties": {"norad_id": 25397, "name": "TECHSAT 1B (GO-32)", "group": "resource", "lat": 60.86738836566449, "lon": 164.14660642292634, "alt_km": 803.8111751407596, "timestamp": "2025-12-10T11:33:53.047595+00:00", "meta": {"OBJECT_NAME": "TECHSAT 1B (GO-32)", "OBJECT_ID": "1998-043D", "EPOCH": "2025-12-09T21:31:36.423840", "MEAN_MOTION": 14.2437571, "ECCENTRICITY": 0.0002134, "INCLINATION": 98.9917, "RA_OF_ASC_NODE": 327.0435, "ARG_OF_PERICENTER": 61.9016, "MEAN_ANOMALY": 298.2377, "EPHEMERIS_TYPE": 0, "CLASSIFICATION_TYPE": "U", "NORAD_CAT_ID": 25397, "ELEMENT_SET_NO": 999, "REV_AT_EPOCH": 42438, "BSTAR": 8.9466e-05, "MEAN_MOTION_DOT": 1.6e-06, "MEAN_MOTION_DDOT": 0}, "tle": {"line1": "1 25397U 98043D   25343.89694935  .00000160  00000+0  89466-4 0  9993", "line2": "2 25397  98.9917 327.0435 0002134  61.9016 298.2377 14.24375710424381"}}, "geometry": {"type": "Point", "coordinates": [164.14660642292634, 60.86738836566449]}}, {"type": "Feature", "properties": {"norad_id": 25504, "name": "SCD 2", "group": "resource", "lat": 24.962822564037392, "lon": -116.36652941849927, "alt_km": 745.950402088888, "timestamp": "2025-12-10T11:33:53.047611+00:00", "meta": {"OBJECT_NAME": "SCD 2", "OBJECT_ID": "1998-060A", "EPOCH": "2025-12-09T18:41:38.027040", "MEAN_MOTION": 14.45420959, "ECCENTRICITY": 0.0016592, "INCLINATION": 24.9931, "RA_OF_ASC_NODE": 160.1538, "ARG_OF_PERICENTER": 281.9313, "MEAN_ANOMALY": 100.7711, "EPHEMERIS_TYPE": 0, "CLASSIFICATION_TYPE": "U", "NORAD_CAT_ID": 25504, "ELEMENT_SET_NO": 999, "REV_AT_EPOCH": 43289, "BSTAR": 0.0001259, "MEAN_MOTION_DOT": 6.33e-06, "MEAN_MOTION_DDOT": 0}, "tle": {"line1": "1 25504U 98060A   25343.77891235  .00000633  00000+0  12590-3 0  9999", "line2": "2 25504  24.9931 160.1538 0016592 281.9313 100.7711 14.45420959432896"}}, "geometry": {"type": "Point", "coordinates": [-116.36652941849927, 24.962822564037392]}}, {"type": "Feature", "properties": {"norad_id": 25757, "name": "DLR-TUBSAT", "group": "resource", "lat": 69.29625201026057, "lon": 172.69583987875632, "alt_km": 711.3776379648561, "timestamp": "2025-12-10T11:33:53.047623+00:00", "meta": {"OBJECT_NAME": "DLR-TUBSAT", "OBJECT_ID": "1999-029B", "EPOCH": "2025-12-09T16:52:35.211648", "MEAN_MOTION": 14.52355963, "ECCENTRICITY": 0.0013728, "INCLINATION": 98.656, "RA_OF_ASC_NODE": 328.1233, "ARG_OF_PERICENTER": 202.2533, "MEAN_ANOMALY": 157.8067, "EPHEMERIS_TYPE": 0, "CLASSIFICATION_TYPE": "U", "NORAD_CAT_ID": 25757, "ELEMENT_SET_NO": 999, "REV_AT_EPOCH": 40574, "BSTAR": 8.0486e-05, "MEAN_MOTION_DOT": 2.8e-06, "MEAN_MOTION_DDOT": 0}, "tle": {"line1": "1 25757U 99029B   25343.70318532  .00000280  00000+0  80486-4 0  9990", "line2": "2 25757  98.6560 328.1233 0013728 202.2533 157.8067 14.52355963405749"}}, "geometry": {"type": "Point", "coordinates": [172.69583987875632, 69.29625201026057]}}, {"type": "Feature", "properties": {"norad_id": 25994, "name": "TERRA", "group": "resource", "lat": 74.77487604701179, "lon": -112.74668960822338, "alt_km": 680.6294676863836, "timestamp": "2025-12-10T11:33:53.047636+00:00", "meta": {"OBJECT_NAME": "TERRA", "OBJECT_ID": "1999-068A", "EPOCH": "2025-12-10T03:00:08.944128", "MEAN_MOTION": 14.60896949, "ECCENTRICITY": 0.0003585, "INCLINATION": 97.9752, "RA_OF_ASC_NODE": 35.9055, "ARG_OF_PERICENTER": 99.4904, "MEAN_ANOMALY": 288.3258, "EPHEMERIS_TYPE": 0, "CLASSIFICATION_TYPE": "U", "NORAD_CAT_ID": 25994, "ELEMENT_SET_NO": 999, "REV_AT_EPOCH": 38200, "BSTAR": 0.00015107, "MEAN_MOTION_DOT": 6.95e-06, "MEAN_MOTION_DDOT": 0}, "tle": {"line1": "1 25994U 99068A   25344.12510352  .00000695  00000+0  15107-3 0  9994", "line2": "2 25994  97.9752  35.9055 0003585  99.4904 288.3258 14.60896949382008"}}, "geometry": {"type": "Point", "coordinates": [-112.74668960822338, 74.77487604701179]}}, {"type": "Feature", "properties": {"norad_id": 27004, "name": "MAROC-TUBSAT", "group": "resource", "lat": 70.27267034443216, "lon": 1.6733666615927625, "alt_km": 1004.9375985037041, "timestamp": "2025-12-10T11:33:53.047647+00:00", "meta": {"OBJECT_NAME": "MAROC-TUBSAT", "OBJECT_ID": "2001-056D", "EPOCH": "2025-12-10T02:50:39.296832", "MEAN_MOTION": 13.7025268, "ECCENTRICITY": 0.0019089, "INCLINATION": 99.7912, "RA_OF_ASC_NODE": 152.5176, "ARG_OF_PERICENTER": 267.1204, "MEAN_ANOMALY": 208.6749, "EPHEMERIS_TYPE": 0, "CLASSIFICATION_TYPE": "U", "NORAD_CAT_ID": 27004, "ELEMENT_SET_NO": 999, "REV_AT_EPOCH": 20029, "BSTAR": 4.1005e-05, "MEAN_MOTION_DOT": -1.1e-07, "MEAN_MOTION_DDOT": 0}, "tle": {"line1": "1 27004U 01056D   25344.11851038 -.00000011  00000+0  41005-4 0  9996", "line2": "2 27004  99.7912 152.5176 0019089 267.1204 208.6749 13.70252680200291"}}, "geometry": {"type": "Point", "coordinates": [1.6733666615927625, 70.27267034443216]}}, {"type": "Feature", "properties": {"norad_id": 27424, "name": "AQUA", "group": "resource", "lat": -29.152541204615538, "lon": -49.94594401005203, "alt_km": 693.8113615071188, "timestamp": "2025-12-10T11:33:53.047659+00:00", "meta": {"OBJECT_NAME": "AQUA", "OBJECT_ID": "2002-022A", "EPOCH": "2025-12-10T02:07:50.280096", "MEAN_MOTION": 14.61798592, "ECCENTRICITY": 9.89e-05, "INCLINATION": 98.4035, "RA_OF_ASC_NODE": 304.9248, "ARG_OF_PERICENTER": 114.4026, "MEAN_ANOMALY": 308.8214, "EPHEMERIS_TYPE": 0, "CLASSIFICATION_TYPE": "U", "NORAD_CAT_ID": 27424, "ELEMENT_SET_NO": 999, "REV_AT_EPOCH": 25564, "BSTAR": 0.00034961, "MEAN_MOTION_DOT": 1.696e-05, "MEAN_MOTION_DDOT": 0}, "tle": {"line1": "1 27424U 02022A   25344.08877639  .00001696  00000+0  34961-3 0  9998", "line2": "2 27424  98.4035 304.9248 0000989 114.4026 308.8214 14.61798592255644"}}, "geometry": {"type": "Point", "coordinates": [-49.94594401005203, -29.152541204615538]}}, {"type": "Feature", "properties": {"norad_id": 28051, "name": "IRS-P6 (RESOURCESAT-1)", "group": "resource", "lat": 42.90092647461982, "lon": 17.2755321980922, "alt_km": 804.8251185935669, "timestamp": "2025-12-10T11:33:53.047669+00:00", "meta": {"OBJECT_NAME": "IRS-P6 (RESOURCESAT-1)", "OBJECT_ID": "2003-046A", "EPOCH": "2025-12-10T05:01:49.260288", "MEAN_MOTION": 14.36072917, "ECCENTRICITY": 0.0063989, "INCLINATION": 98.2176, "RA_OF_ASC_NODE": 24.7335, "ARG_OF_PERICENTER": 188.2889, "MEAN_ANOMALY": 248.9191, "EPHEMERIS_TYPE": 0, "CLASSIFICATION_TYPE": "U", "NORAD_CAT_ID": 28051, "ELEMENT_SET_NO": 999, "REV_AT_EPOCH": 15340, "BSTAR": 8.9827e-05, "MEAN_MOTION_DOT": 2.26e-06, "MEAN_MOTION_DDOT": 0}, "tle": {"line1": "1 28051U 03046A   25344.20959792  .00000226  00000+0  89827-4 0  9997", "line2": "2 28051  98.2176  24.7335 0063989 188.2889 248.9191 14.36072917153401"}}, "geometry": {"type": "Point", "coordinates": [17.2755321980922, 42.90092647461982]}}, {"type": "Feature", "properties": {"norad_id": 28220, "name": "SHIYAN-1 (SY-1)", "group": "resource", "lat": -69.13875301833049, "lon": -155.46328302167143, "alt_km": 488.53202793702985, "timestamp": "2025-12-10T11:33:53.047679+00:00", "meta": {"OBJECT_NAME": "SHIYAN-1 (SY-1)", "OBJECT_ID": "2004-012A", "EPOCH": "2025-12-10T04:11:03.635232", "MEAN_MOTION": 15.28033489, "ECCENTRICITY": 0.0005788, "INCLINATION": 97.8933, "RA_OF_ASC_NODE": 45.561, "ARG_OF_PERICENTER": 335.8258, "MEAN_ANOMALY": 24.2708, "EPHEMERIS_TYPE": 0, "CLASSIFICATION_TYPE": "U", "NORAD_CAT_ID": 28220, "ELEMENT_SET_NO": 999, "REV_AT_EPOCH": 18217, "BSTAR": 0.00067493, "MEAN_MOTION_DOT": 0.00018409, "MEAN_MOTION_DDOT": 0}, "tle": {"line1": "1 28220U 04012A   25344.17434763  .00018409  00000+0  67493-3 0  9997", "line2": "2 28220  97.8933  45.5610 0005788 335.8258  24.2708 15.28033489182173"}}, "geometry": {"type": "Point", "coordinates": [-155.46328302167143, -69.13875301833049]}}, {"type": "Feature", "properties": {"norad_id": 28376, "name": "AURA", "group": "resource", "lat": 69.35179595385371, "lon": 137.54345525249101, "alt_km": 682.5931695934378, "timestamp": "2025-12-10T11:33:53.047690+00:00", "meta": {"OBJECT_NAME": "AURA", "OBJECT_ID": "2004-026A", "EPOCH": "2025-12-10T02:50:57.217920", "MEAN_MOTION": 14.60936441, "ECCENTRICITY": 0.0001196, "INCLINATION": 98.3182, "RA_OF_ASC_NODE": 294.3332, "ARG_OF_PERICENTER": 94.072, "MEAN_ANOMALY": 266.0616, "EPHEMERIS_TYPE": 0, "CLASSIFICATION_TYPE": "U", "NORAD_CAT_ID": 28376, "ELEMENT_SET_NO": 999, "REV_AT_EPOCH": 13860, "BSTAR": 0.00035005, "MEAN_MOTION_DOT": 1.667e-05, "MEAN_MOTION_DDOT": 0}, "tle": {"line1": "1 28376U 04026A   25344.11871780  .00001667  00000+0  35005-3 0  9994", "line2": "2 28376  98.3182 294.3332 0001196  94.0720 266.0616 14.60936441138607"}}, "geometry": {"type": "Point", "coordinates": [137.54345525249101, 69.35179595385371]}}]}